{"type": "FeatureCollection", "features": [ {"type": "Feature", "properties": {"norad_id": 42969, "name": "SENTINEL-5P", "group": "resource", "lat": -23.273112035275236, "lon": 91.24140451937348, "alt_km": 832.7188281736453, "timestamp": "2025-12-02T08:59:32.377133+00:00", "meta": {"OBJECT_NAME": "SENTINEL-5P", "OBJECT_ID": "2017-064A", "EPOCH": "2025-12-02T02:57:42.890976", "MEAN_MOTION": 14.19513019, "ECCENTRICITY": 9.46e-05, "INCLINATION": 98.7768, "RA_OF_ASC_NODE": 274.8025, "ARG_OF_PERICENTER": 85.5044, "MEAN_ANOMALY": 274.624, "EPHEMERIS_TYPE": 0, "CLASSIFICATION_TYPE": "U", "NORAD_CAT_ID": 42969, "ELEMENT_SET_NO": 999, "REV_AT_EPOCH": 42160, "BSTAR": 6.7214e-05, "MEAN_MOTION_DOT": 9.7e-07, "MEAN_MOTION_DDOT": 0}, "tle": {"line1": "1 42969U 17064A   25336.12341309  .00000097  00000+0  67214-4 0  9999", "line2": "2 42969  98.7768 274.8025 0000946  85.5044 274.6240 14.19513019421602"}}, "geometry": {"type": "Point", "coordinates": [91.24140451937348, -23.273112035275236]}}, {"type": "Feature", "properties": {"norad_id": 42987, "name": "SKYSAT-C11", "group": "resource", "lat": -62.70840858196507, "lon": -81.00185457257004, "alt_km": 433.7352541892751, "timestamp": "2025-12-02T08:59:32.377143+00:00", "meta": {"OBJECT_NAME": "SKYSAT-C11", "OBJECT_ID": "2017-068A", "EPOCH": "2025-12-01T22:37:35.512032", "MEAN_MOTION": 15.46762492, "ECCENTRICITY": 9.21e-05, "INCLINATION": 97.4132, "RA_OF_ASC_NODE": 113.1732, "ARG_OF_PERICENTER": 119.4371, "MEAN_ANOMALY": 240.6971, "EPHEMERIS_TYPE": 0, "CLASSIFICATION_TYPE": "U", "NORAD_CAT_ID": 42987, "ELEMENT_SET_NO": 999, "REV_AT_EPOCH": 45264, "BSTAR": 0.00048841, "MEAN_MOTION_DOT": 0.00024407, "MEAN_MOTION_DDOT": 0}, "tle": {"line1": "1 42987U 17068A   25335.94277213  .00024407  00000+0  48841-3 0  9999", "line2": "2 42987  97.4132 113.1732 0000921 119.4371 240.6971 15.46762492452640"}}, "geometry": {"type": "Point", "coordinates": [-81.00185457257004, -62.70840858196507]}}, {"type": "Feature", "properties": {"norad_id": 42988, "name": "SKYSAT-C10", "group": "resource", "lat": 9.702519940486841, "lon": -71.52307983617557, "alt_km": 469.19801724583886, "timestamp": "2025-12-02T08:59:32.377153+00:00", "meta": {"OBJECT_NAME": "SKYSAT-C10", "OBJECT_ID": "2017-068B", "EPOCH": "2025-12-01T21:16:44.709312", "MEAN_MOTION": 15.31940843, "ECCENTRICITY": 0.0005458, "INCLINATION": 97.425, "RA_OF_ASC_NODE": 106.7101, "ARG_OF_PERICENTER": 124.6078, "MEAN_ANOMALY": 235.5679, "EPHEMERIS_TYPE": 0, "CLASSIFICATION_TYPE": "U", "NORAD_CAT_ID": 42988, "ELEMENT_SET_NO": 999, "REV_AT_EPOCH": 45213, "BSTAR": 0.000411, "MEAN_MOTION_DOT": 0.00012609, "MEAN_MOTION_DDOT": 0}, "tle": {"line1": "1 42988U 17068B   25335.88662858  .00012609  00000+0  41100-3 0  9998", "line2": "2 42988  97.4250 106.7101 0005458 124.6078 235.5679 15.31940843452136"}}, "geometry": {"type": "Point", "coordinates": [-71.52307983617557, 9.702519940486841]}}, {"type": "Feature", "properties": {"norad_id": 42989, "name": "SKYSAT-C9", "group": "resource", "lat": -51.316913212100474, "lon": -82.81472625842086, "alt_km": 468.5896130097417, "timestamp": "2025-12-02T08:59:32.377164+00:00", "meta": {"OBJECT_NAME": "SKYSAT-C9", "OBJECT_ID": "2017-068C", "EPOCH": "2025-12-01T21:02:21.658848", "MEAN_MOTION": 15.35612414, "ECCENTRICITY": 0.0010629, "INCLINATION": 97.4179, "RA_OF_ASC_NODE": 106.0488, "ARG_OF_PERICENTER": 123.1195, "MEAN_ANOMALY": 237.1071, "EPHEMERIS_TYPE": 0, "CLASSIFICATION_TYPE": "U", "NORAD_CAT_ID": 42989, "ELEMENT_SET_NO": 999, "REV_AT_EPOCH": 45241, "BSTAR": 0.00043729, "MEAN_MOTION_DOT": 0.00015097, "MEAN_MOTION_DDOT": 0}, "tle": {"line1": "1 42989U 17068C   25335.87663957  .00015097  00000+0  43729-3 0  9992", "line2": "2 42989  97.4179 106.0488 0010629 123.1195 237.1071 15.35612414452417"}}, "geometry": {"type": "Point", "coordinates": [-82.81472625842086, -51.316913212100474]}}, {"type": "Feature", "properties": {"norad_id": 42990, "name": "SKYSAT-C8", "group": "resource", "lat": -41.60041416574872, "lon": 112.9836468550316, "alt_km": 474.18806391806083, "timestamp": "2025-12-02T08:59:32.377175+00:00", "meta": {"OBJECT_NAME": "SKYSAT-C8", "OBJECT_ID": "2017-068D", "EPOCH": "2025-12-01T22:12:22.169376", "MEAN_MOTION": 15.32546383, "ECCENTRICITY": 0.0002213, "INCLINATION": 97.427, "RA_OF_ASC_NODE": 105.8818, "ARG_OF_PERICENTER": 24.1716, "MEAN_ANOMALY": 335.9629, "EPHEMERIS_TYPE": 0, "CLASSIFICATION_TYPE": "U", "NORAD_CAT_ID": 42990, "ELEMENT_SET_NO": 999, "REV_AT_EPOCH": 45205, "BSTAR": 0.00042312, "MEAN_MOTION_DOT": 0.00013228, "MEAN_MOTION_DDOT": 0}, "tle": {"line1": "1 42990U 17068D   25335.92525659  .00013228  00000+0  42312-3 0  9997", "line2": "2 42990  97.4270 105.8818 0002213  24.1716 335.9629 15.32546383452058"}}, "geometry": {"type": "Point", "coordinates": [112.9836468550316, -41.60041416574872]}}, {"type": "Feature", "properties": {"norad_id": 42991, "name": "SKYSAT-C7", "group": "resource", "lat": -15.668880564405475, "lon": -74.71478875226043, "alt_km": 476.35106129348605, "timestamp": "2025-12-02T08:59:32.377185+00:00", "meta": {"OBJECT_NAME": "SKYSAT-C7", "OBJECT_ID": "2017-068E", "EPOCH": "2025-12-02T03:26:19.167360", "MEAN_MOTION": 15.31962717, "ECCENTRICITY": 0.0007875, "INCLINATION": 97.4278, "RA_OF_ASC_NODE": 107.1504, "ARG_OF_PERICENTER": 90.0966, "MEAN_ANOMALY": 270.1178, "EPHEMERIS_TYPE": 0, "CLASSIFICATION_TYPE": "U", "NORAD_CAT_ID": 42991, "ELEMENT_SET_NO": 999, "REV_AT_EPOCH": 45215, "BSTAR": 0.00043052, "MEAN_MOTION_DOT": 0.00013228, "MEAN_MOTION_DDOT": 0}, "tle": {"line1": "1 42991U 17068E   25336.14327740  .00013228  00000+0  43052-3 0  9996", "line2": "2 42991  97.4278 107.1504 0007875  90.0966 270.1178 15.31962717452154"}}, "geometry": {"type": "Point", "coordinates": [-74.71478875226043, -15.668880564405475]}}, {"type": "Feature", "properties": {"norad_id": 42992, "name": "SKYSAT-C6", "group": "resource", "lat": -16.62657756417758, "lon": 110.06289780009455, "alt_km": 479.55600777886775, "timestamp": "2025-12-02T08:59:32.377195+00:00", "meta": {"OBJECT_NAME": "SKYSAT-C6", "OBJECT_ID": "2017-068F", "EPOCH": "2025-12-02T02:47:29.681664", "MEAN_MOTION": 15.31141355, "ECCENTRICITY": 0.0005127, "INCLINATION": 97.4312, "RA_OF_ASC_NODE": 107.5703, "ARG_OF_PERICENTER": 112.7982, "MEAN_ANOMALY": 247.3801, "EPHEMERIS_TYPE": 0, "CLASSIFICATION_TYPE": "U", "NORAD_CAT_ID": 42992, "ELEMENT_SET_NO": 999, "REV_AT_EPOCH": 45213, "BSTAR": 0.00044335, "MEAN_MOTION_DOT": 0.00013273, "MEAN_MOTION_DDOT": 0}, "tle": {"line1": "1 42992U 17068F   25336.11631576  .00013273  00000+0  44335-3 0  9994", "line2": "2 42992  97.4312 107.5703 0005127 112.7982 247.3801 15.31141355452131"}}, "geometry": {"type": "Point", "coordinates": [110.06289780009455, -16.62657756417758]}}, {"type": "Feature", "properties": {"norad_id": 43111, "name": "CARTOSAT-2F", "group": "resource", "lat": -0.14176367786654565, "lon": -145.8394933003232, "alt_km": 510.3726207032669, "timestamp": "2025-12-02T08:59:32.377206+00:00", "meta": {"OBJECT_NAME": "CARTOSAT-2F", "OBJECT_ID": "2018-004A", "EPOCH": "2025-12-01T21:08:16.196064", "MEAN_MOTION": 15.19324266, "ECCENTRICITY": 9.07e-05, "INCLINATION": 97.4331, "RA_OF_ASC_NODE": 33.6929, "ARG_OF_PERICENTER": 193.2914, "MEAN_ANOMALY": 166.8297, "EPHEMERIS_TYPE": 0, "CLASSIFICATION_TYPE": "U", "NORAD_CAT_ID": 43111, "ELEMENT_SET_NO": 999, "REV_AT_EPOCH": 43737, "BSTAR": 6.1441e-05, "MEAN_MOTION_DOT": 1.23e-05, "MEAN_MOTION_DDOT": 0}, "tle": {"line1": "1 43111U 18004A   25335.88074301  .00001230  00000+0  61441-4 0  9997", "line2": "2 43111  97.4331  33.6929 0000907 193.2914 166.8297 15.19324266437378"}}, "geometry": {"type": "Point", "coordinates": [-145.8394933003232, -0.14176367786654565]}}, {"type": "Feature", "properties": {"norad_id": 43259, "name": "GAOFEN-1 02", "group": "resource", "lat": 77.26418118101074, "lon": -106.88554086176434, "alt_km": 634.1750178713573, "timestamp": "2025-12-02T08:59:32.377216+00:00", "meta": {"OBJECT_NAME": "GAOFEN-1 02", "OBJECT_ID": "2018-031A", "EPOCH": "2025-12-02T05:17:19.059072", "MEAN_MOTION": 14.76443655, "ECCENTRICITY": 0.0001283, "INCLINATION": 98.0822, "RA_OF_ASC_NODE": 34.0049, "ARG_OF_PERICENTER": 265.4839, "MEAN_ANOMALY": 94.6224, "EPHEMERIS_TYPE": 0, "CLASSIFICATION_TYPE": "U", "NORAD_CAT_ID": 43259, "ELEMENT_SET_NO": 999, "REV_AT_EPOCH": 41363, "BSTAR": 0.00017421, "MEAN_MOTION_DOT": 1.16e-05, "MEAN_MOTION_DDOT": 0}, "tle": {"line1": "1 43259U 18031A   25336.22035948  .00001160  00000+0  17421-3 0  9993", "line2": "2 43259  98.0822  34.0049 0001283 265.4839  94.6224 14.76443655413634"}}, "geometry": {"type": "Point", "coordinates": [-106.88554086176434, 77.26418118101074]}}, {"type": "Feature", "properties": {"norad_id": 43260, "name": "GAOFEN-1 03", "group": "resource", "lat": -36.143285708585616, "lon": -151.9189680116199, "alt_km": 648.6142730514039, "timestamp": "2025-12-02T08:59:32.377226+00:00", "meta": {"OBJECT_NAME": "GAOFEN-1 03", "OBJECT_ID": "2018-031B", "EPOCH": "2025-12-02T04:45:41.988096", "MEAN_MOTION": 14.76400095, "ECCENTRICITY": 0.0002716, "INCLINATION": 98.0813, "RA_OF_ASC_NODE": 33.8612, "ARG_OF_PERICENTER": 2.4567, "MEAN_ANOMALY": 357.6655, "EPHEMERIS_TYPE": 0, "CLASSIFICATION_TYPE": "U", "NORAD_CAT_ID": 43260, "ELEMENT_SET_NO": 999, "REV_AT_EPOCH": 41362, "BSTAR": 0.0001766, "MEAN_MOTION_DOT": 1.175e-05, "MEAN_MOTION_DDOT": 0}, "tle": {"line1": "1 43260U 18031B   25336.19840264  .00001175  00000+0  17660-3 0  9997", "line2": "2 43260  98.0813  33.8612 0002716   2.4567 357.6655 14.76400095413628"}}, "geometry": {"type": "Point", "coordinates": [-151.9189680116199, -36.143285708585616]}}]}